start=new Date('2023-04-07T00:00:00.000Z').valueOf();
sats=[{"PERIOD":"95.592","DECAY_DATE":null,"MEAN_ANOMALY":"266.2697","MEAN_ELEMENT_THEORY":"SGP4","CENTER_NAME":"EARTH","REF_FRAME":"TEME","FILE":"3882049","MEAN_MOTION":"15.06394892","TLE_LINE1":"1 46368U 20062AV  23096.75009963  .00007912  00000-0  54952-3 0  9993","EPOCH":"2023-04-06T18:00:08.608032","LAUNCH_DATE":"2020-09-03","MEAN_MOTION_DDOT":"0.0000000000000","EPHEMERIS_TYPE":"0","TLE_LINE2":"2 46368  53.0541 110.7742 0001598  93.8475 266.2697 15.06394892143630","ECCENTRICITY":"0.00015980","RCS_SIZE":"LARGE","PERIAPSIS":"546.123","OBJECT_TYPE":"PAYLOAD","GP_ID":"229641090","ELEMENT_SET_NO":"999","OBJECT_ID":"2020-062AV","TIME_SYSTEM":"UTC","REV_AT_EPOCH":"14363","RA_OF_ASC_NODE":"110.7742","COUNTRY_CODE":"US","OBJECT_NAME":"STARLINK-1658","SITE":"AFETR","APOAPSIS":"548.336","INCLINATION":"53.0541","MEAN_MOTION_DOT":"0.00007912","SEMIMAJOR_AXIS":"6925.364","ARG_OF_PERICENTER":"93.8475","CLASSIFICATION_TYPE":"U","NORAD_CAT_ID":"46368","BSTAR":"0.00054952000000"},{"FILE":"3881771","MEAN_MOTION":"15.06397258","TLE_LINE1":"1 46370U 20062AX  23096.44879335  .00005051  00000-0  35777-3 0  9996","PERIOD":"95.592","DECAY_DATE":null,"CENTER_NAME":"EARTH","MEAN_ANOMALY":"260.1586","MEAN_ELEMENT_THEORY":"SGP4","REF_FRAME":"TEME","MEAN_MOTION_DDOT":"0.0000000000000","EPHEMERIS_TYPE":"0","ECCENTRICITY":"0.00013880","TLE_LINE2":"2 46370  53.0534 112.1387 0001388  99.9560 260.1586 15.06397258143588","RCS_SIZE":"LARGE","EPOCH":"2023-04-06T10:46:15.745440","LAUNCH_DATE":"2020-09-03","TIME_SYSTEM":"UTC","OBJECT_ID":"2020-062AX","REV_AT_EPOCH":"14358","PERIAPSIS":"546.261","OBJECT_TYPE":"PAYLOAD","GP_ID":"229606995","ELEMENT_SET_NO":"999","ARG_OF_PERICENTER":"99.9560","NORAD_CAT_ID":"46370","CLASSIFICATION_TYPE":"U","BSTAR":"0.00035777000000","COUNTRY_CODE":"US","RA_OF_ASC_NODE":"112.1387","OBJECT_NAME":"STARLINK-1670","SITE":"AFETR","APOAPSIS":"548.183","INCLINATION":"53.0534","MEAN_MOTION_DOT":"0.00005051","SEMIMAJOR_AXIS":"6925.357"},{"GP_ID":"229639603","ELEMENT_SET_NO":"999","OBJECT_TYPE":"PAYLOAD","PERIAPSIS":"546.313","REV_AT_EPOCH":"14363","TIME_SYSTEM":"UTC","OBJECT_ID":"2020-062AY","MEAN_MOTION_DOT":"0.00010280","SEMIMAJOR_AXIS":"6925.348","APOAPSIS":"548.112","INCLINATION":"53.0510","OBJECT_NAME":"STARLINK-1688","SITE":"AFETR","COUNTRY_CODE":"US","RA_OF_ASC_NODE":"110.6784","BSTAR":"0.00070800000000","CLASSIFICATION_TYPE":"U","NORAD_CAT_ID":"46371","ARG_OF_PERICENTER":"92.8715","REF_FRAME":"TEME","MEAN_ANOMALY":"267.2422","MEAN_ELEMENT_THEORY":"SGP4","CENTER_NAME":"EARTH","PERIOD":"95.592","DECAY_DATE":null,"TLE_LINE1":"1 46371U 20062AY  23096.77315715  .00010280  00000-0  70800-3 0  9996","MEAN_MOTION":"15.06400320","FILE":"3882049","LAUNCH_DATE":"2020-09-03","EPOCH":"2023-04-06T18:33:20.777760","RCS_SIZE":"LARGE","ECCENTRICITY":"0.00012990","TLE_LINE2":"2 46371  53.0510 110.6784 0001299  92.8715 267.2422 15.06400320143630","MEAN_MOTION_DDOT":"0.0000000000000","EPHEMERIS_TYPE":"0"},{"RCS_SIZE":"LARGE","TLE_LINE2":"2 46372  53.0526 130.6403 0001469  81.1855 278.9301 15.06405480143359","ECCENTRICITY":"0.00014690","EPHEMERIS_TYPE":"0","MEAN_MOTION_DDOT":"0.0000000000000","LAUNCH_DATE":"2020-09-03","EPOCH":"2023-04-06T18:46:37.714944","TLE_LINE1":"1 46372U 20062AZ  23096.78238096  .00012477  00000-0  85493-3 0  9998","MEAN_MOTION":"15.06405480","FILE":"3882049","REF_FRAME":"TEME","CENTER_NAME":"EARTH","MEAN_ANOMALY":"278.9301","MEAN_ELEMENT_THEORY":"SGP4","PERIOD":"95.592","DECAY_DATE":null,"BSTAR":"0.00085493000000","NORAD_CAT_ID":"46372","CLASSIFICATION_TYPE":"U","ARG_OF_PERICENTER":"81.1855","MEAN_MOTION_DOT":"0.00012477","SEMIMAJOR_AXIS":"6925.332","APOAPSIS":"548.214","INCLINATION":"53.0526","SITE":"AFETR","OBJECT_NAME":"STARLINK-1689","RA_OF_ASC_NODE":"130.6403","COUNTRY_CODE":"US","REV_AT_EPOCH":"14335","TIME_SYSTEM":"UTC","OBJECT_ID":"2020-062AZ","GP_ID":"229639853","ELEMENT_SET_NO":"999","OBJECT_TYPE":"PAYLOAD","PERIAPSIS":"546.179"},{"OBJECT_ID":"2020-062BB","TIME_SYSTEM":"UTC","REV_AT_EPOCH":"14435","PERIAPSIS":"546.269","OBJECT_TYPE":"PAYLOAD","GP_ID":"229640602","ELEMENT_SET_NO":"999","ARG_OF_PERICENTER":"103.7964","CLASSIFICATION_TYPE":"U","NORAD_CAT_ID":"46374","BSTAR":"0.00082006000000","COUNTRY_CODE":"US","RA_OF_ASC_NODE":"59.9817","SITE":"AFETR","OBJECT_NAME":"STARLINK-1711","APOAPSIS":"548.202","INCLINATION":"53.0556","MEAN_MOTION_DOT":"0.00011952","SEMIMAJOR_AXIS":"6925.370","FILE":"3882049","MEAN_MOTION":"15.06392854","TLE_LINE1":"1 46374U 20062BB  23096.92889883  .00011952  00000-0  82006-3 0  9996","PERIOD":"95.593","DECAY_DATE":null,"CENTER_NAME":"EARTH","MEAN_ANOMALY":"256.3180","MEAN_ELEMENT_THEORY":"SGP4","REF_FRAME":"TEME","MEAN_MOTION_DDOT":"0.0000000000000","EPHEMERIS_TYPE":"0","TLE_LINE2":"2 46374  53.0556  59.9817 0001396 103.7964 256.3180 15.06392854144353","ECCENTRICITY":"0.00013960","RCS_SIZE":"LARGE","EPOCH":"2023-04-06T22:17:36.858912","LAUNCH_DATE":"2020-09-03"},{"LAUNCH_DATE":"2020-09-03","EPOCH":"2023-04-06T16:16:00.612768","RCS_SIZE":"LARGE","ECCENTRICITY":"0.00013200","TLE_LINE2":"2 46375  53.0538  86.1055 0001320 109.7220 250.3912 15.06408827144140","MEAN_MOTION_DDOT":"0.0000000000000","EPHEMERIS_TYPE":"0","REF_FRAME":"TEME","MEAN_ANOMALY":"250.3912","CENTER_NAME":"EARTH","MEAN_ELEMENT_THEORY":"SGP4","PERIOD":"95.592","DECAY_DATE":null,"TLE_LINE1":"1 46375U 20062BC  23096.67778487  .00007665  00000-0  53275-3 0  9998","MEAN_MOTION":"15.06408827","FILE":"3881847","MEAN_MOTION_DOT":"0.00007665","SEMIMAJOR_AXIS":"6925.322","APOAPSIS":"548.101","INCLINATION":"53.0538","OBJECT_NAME":"STARLINK-1724","SITE":"AFETR","COUNTRY_CODE":"US","RA_OF_ASC_NODE":"86.1055","BSTAR":"0.00053275000000","CLASSIFICATION_TYPE":"U","NORAD_CAT_ID":"46375","ARG_OF_PERICENTER":"109.7220","GP_ID":"229616206","ELEMENT_SET_NO":"999","OBJECT_TYPE":"PAYLOAD","PERIAPSIS":"546.272","REV_AT_EPOCH":"14414","TIME_SYSTEM":"UTC","OBJECT_ID":"2020-062BC"},{"SEMIMAJOR_AXIS":"6925.364","MEAN_MOTION_DOT":"0.00004041","INCLINATION":"53.0531","APOAPSIS":"548.086","OBJECT_NAME":"STARLINK-1742","SITE":"AFETR","RA_OF_ASC_NODE":"86.0415","COUNTRY_CODE":"US","BSTAR":"0.00029009000000","NORAD_CAT_ID":"46376","CLASSIFICATION_TYPE":"U","ARG_OF_PERICENTER":"84.2502","ELEMENT_SET_NO":"999","GP_ID":"229640091","OBJECT_TYPE":"PAYLOAD","PERIAPSIS":"546.373","REV_AT_EPOCH":"14396","TIME_SYSTEM":"UTC","OBJECT_ID":"2020-062BD","LAUNCH_DATE":"2020-09-03","EPOCH":"2023-04-06T16:37:15.377376","RCS_SIZE":"LARGE","TLE_LINE2":"2 46376  53.0531  86.0415 0001237  84.2502 275.8628 15.06394872143969","ECCENTRICITY":"0.00012370","MEAN_MOTION_DDOT":"0.0000000000000","EPHEMERIS_TYPE":"0","REF_FRAME":"TEME","MEAN_ANOMALY":"275.8628","MEAN_ELEMENT_THEORY":"SGP4","CENTER_NAME":"EARTH","DECAY_DATE":null,"PERIOD":"95.592","TLE_LINE1":"1 46376U 20062BD  23096.69253909  .00004041  00000-0  29009-3 0  9991","MEAN_MOTION":"15.06394872","FILE":"3882049"},{"EPOCH":"2023-04-06T17:24:20.436192","LAUNCH_DATE":"2020-09-03","ECCENTRICITY":"0.00014930","TLE_LINE2":"2 46380  53.0520 110.8918 0001493  95.5242 264.5917 15.06394591143623","EPHEMERIS_TYPE":"0","MEAN_MOTION_DDOT":"0.0000000000000","RCS_SIZE":"LARGE","PERIOD":"95.592","DECAY_DATE":null,"REF_FRAME":"TEME","MEAN_ANOMALY":"264.5917","CENTER_NAME":"EARTH","MEAN_ELEMENT_THEORY":"SGP4","MEAN_MOTION":"15.06394591","FILE":"3882049","TLE_LINE1":"1 46380U 20062BH  23096.72523653  .00000835  00000-0  74990-4 0  9993","SITE":"AFETR","OBJECT_NAME":"STARLINK-1758","COUNTRY_CODE":"US","RA_OF_ASC_NODE":"110.8918","MEAN_MOTION_DOT":"0.00000835","SEMIMAJOR_AXIS":"6925.365","APOAPSIS":"548.264","INCLINATION":"53.0520","ARG_OF_PERICENTER":"95.5242","BSTAR":"0.00007499000000","CLASSIFICATION_TYPE":"U","NORAD_CAT_ID":"46380","PERIAPSIS":"546.196","GP_ID":"229640341","ELEMENT_SET_NO":"999","OBJECT_TYPE":"PAYLOAD","OBJECT_ID":"2020-062BH","TIME_SYSTEM":"UTC","REV_AT_EPOCH":"14362"},{"PERIAPSIS":"545.882","OBJECT_TYPE":"PAYLOAD","ELEMENT_SET_NO":"999","GP_ID":"229616481","OBJECT_ID":"2020-062BK","TIME_SYSTEM":"UTC","REV_AT_EPOCH":"14412","RA_OF_ASC_NODE":"85.9762","COUNTRY_CODE":"US","SITE":"AFETR","OBJECT_NAME":"STARLINK-1769","INCLINATION":"53.0536","APOAPSIS":"548.497","SEMIMAJOR_AXIS":"6925.324","MEAN_MOTION_DOT":"0.00009865","ARG_OF_PERICENTER":"87.9281","NORAD_CAT_ID":"46382","CLASSIFICATION_TYPE":"U","BSTAR":"0.00068011000000","DECAY_DATE":null,"PERIOD":"95.592","CENTER_NAME":"EARTH","MEAN_ANOMALY":"272.1924","MEAN_ELEMENT_THEORY":"SGP4","REF_FRAME":"TEME","FILE":"3881844","MEAN_MOTION":"15.06408002","TLE_LINE1":"1 46382U 20062BK  23096.70728367  .00009865  00000-0  68011-3 0  9990","EPOCH":"2023-04-06T16:58:29.309088","LAUNCH_DATE":"2020-09-03","EPHEMERIS_TYPE":"0","MEAN_MOTION_DDOT":"0.0000000000000","TLE_LINE2":"2 46382  53.0536  85.9762 0001888  87.9281 272.1924 15.06408002144129","ECCENTRICITY":"0.00018880","RCS_SIZE":"LARGE"},{"EPOCH":"2023-04-06T11:52:36.028416","LAUNCH_DATE":"2020-09-03","MEAN_MOTION_DDOT":"0.0000000000000","EPHEMERIS_TYPE":"0","ECCENTRICITY":"0.00014520","TLE_LINE2":"2 46383  53.0511 131.9286 0001452  91.0535 269.0620 15.06389968143307","RCS_SIZE":"LARGE","PERIOD":"95.593","DECAY_DATE":null,"CENTER_NAME":"EARTH","MEAN_ANOMALY":"269.0620","MEAN_ELEMENT_THEORY":"SGP4","REF_FRAME":"TEME","FILE":"3881771","MEAN_MOTION":"15.06389968","TLE_LINE1":"1 46383U 20062BL  23096.49486144  .00005142  00000-0  36395-3 0  9995","RA_OF_ASC_NODE":"131.9286","COUNTRY_CODE":"US","OBJECT_NAME":"STARLINK-1770","SITE":"AFETR","APOAPSIS":"548.250","INCLINATION":"53.0511","MEAN_MOTION_DOT":"0.00005142","SEMIMAJOR_AXIS":"6925.379","ARG_OF_PERICENTER":"91.0535","CLASSIFICATION_TYPE":"U","NORAD_CAT_ID":"46383","BSTAR":"0.00036395000000","PERIAPSIS":"546.239","OBJECT_TYPE":"PAYLOAD","GP_ID":"229606996","ELEMENT_SET_NO":"999","OBJECT_ID":"2020-062BL","TIME_SYSTEM":"UTC","REV_AT_EPOCH":"14330"}];
